[{"OBJECT_NAME":"STARLINK-31859","OBJECT_ID":"2024-097P","EPOCH":"2026-03-09T12:56:25.613376","MEAN_MOTION":15.27571299,"ECCENTRICITY":0.00012421,"INCLINATION":43.0029,"RA_OF_ASC_NODE":268.2948,"ARG_OF_PERICENTER":243.0157,"MEAN_ANOMALY":117.0568,"EPHEMERIS_TYPE":0,"CLASSIFICATION_TYPE":"U","NORAD_CAT_ID":59848,"ELEMENT_SET_NO":999,"REV_AT_EPOCH":10197,"BSTAR":-2.0567973e-5,"MEAN_MOTION_DOT":-8.28e-6,"MEAN_MOTION_DDOT":0},{"OBJECT_NAME":"OBJECT E","OBJECT_ID":"2026-023E","EPOCH":"2026-03-09T23:33:47.695392","MEAN_MOTION":15.23129165,"ECCENTRICITY":0.00204824,"INCLINATION":96.6311,"RA_OF_ASC_NODE":141.8855,"ARG_OF_PERICENTER":125.9066,"MEAN_ANOMALY":234.4078,"EPHEMERIS_TYPE":0,"CLASSIFICATION_TYPE":"U","NORAD_CAT_ID":67678,"ELEMENT_SET_NO":999,"REV_AT_EPOCH":489,"BSTAR":0.00066049733,"MEAN_MOTION_DOT":0.00015639,"MEAN_MOTION_DDOT":0}]
